$$SOE
2460147.500000000, A.D. 2023-Jul-22 00:00:00.0000, 4.706612045763682E+08, -2.958039871977286E+08, -2.733087469455674E+08,
2460154.500000000, A.D. 2023-Jul-29 00:00:00.0000, 4.733293943479668E+08, -2.890028826972824E+08, -2.708467424190407E+08,
2460161.500000000, A.D. 2023-Aug-05 00:00:00.0000, 4.758997953480269E+08, -2.821420600898626E+08, -2.683287771364594E+08,
2460168.500000000, A.D. 2023-Aug-12 00:00:00.0000, 4.783707660410716E+08, -2.752222806239892E+08, -2.657547463347129E+08,
2460175.500000000, A.D. 2023-Aug-19 00:00:00.0000, 4.807406380513300E+08, -2.682443296070566E+08, -2.631245487596028E+08,
2460182.500000000, A.D. 2023-Aug-26 00:00:00.0000, 4.830077154785592E+08, -2.612090174751086E+08, -2.604380870155622E+08,
2460189.500000000, A.D. 2023-Sep-02 00:00:00.0000, 4.851702741820699E+08, -2.541171809887845E+08, -2.576952679430165E+08,
2460196.500000000, A.D. 2023-Sep-09 00:00:00.0000, 4.872265610700722E+08, -2.469696845991515E+08, -2.548960030313125E+08,
2460203.500000000, A.D. 2023-Sep-16 00:00:00.0000, 4.891747935634631E+08, -2.397674220439985E+08, -2.520402088888043E+08,
2460210.500000000, A.D. 2023-Sep-23 00:00:00.0000, 4.910131596514698E+08, -2.325113178904607E+08, -2.491278077865223E+08,
2460217.500000000, A.D. 2023-Sep-30 00:00:00.0000, 4.927398182011284E+08, -2.252023278362365E+08, -2.461587281491237E+08,
2460224.500000000, A.D. 2023-Oct-07 00:00:00.0000, 4.943528971687304E+08, -2.178414383160782E+08, -2.431329048241889E+08,
2460231.500000000, A.D. 2023-Oct-14 00:00:00.0000, 4.958504907544494E+08, -2.104296687310939E+08, -2.400502794982485E+08,
2460238.500000000, A.D. 2023-Oct-21 00:00:00.0000, 4.972306587297829E+08, -2.029680747020699E+08, -2.369108014264814E+08,
2460245.500000000, A.D. 2023-Oct-28 00:00:00.0000, 4.984914265150976E+08, -1.954577500905726E+08, -2.337144281627918E+08,
2460252.500000000, A.D. 2023-Nov-04 00:00:00.0000, 4.996307847592981E+08, -1.878998285625080E+08, -2.304611262409379E+08,
2460259.500000000, A.D. 2023-Nov-11 00:00:00.0000, 5.006466886013952E+08, -1.802954852985484E+08, -2.271508718744872E+08,
2460266.500000000, A.D. 2023-Nov-18 00:00:00.0000, 5.015370568359161E+08, -1.726459389204208E+08, -2.237836517035946E+08,
2460273.500000000, A.D. 2023-Nov-25 00:00:00.0000, 5.022997710577534E+08, -1.649524536153755E+08, -2.203594635962644E+08,
2460280.500000000, A.D. 2023-Dec-02 00:00:00.0000, 5.029326748177570E+08, -1.572163414751677E+08, -2.168783175106919E+08,
2460287.500000000, A.D. 2023-Dec-09 00:00:00.0000, 5.034335728703106E+08, -1.494389651138877E+08, -2.133402364339706E+08,
2460294.500000000, A.D. 2023-Dec-16 00:00:00.0000, 5.038002308040504E+08, -1.416217405576378E+08, -2.097452574259897E+08,
2460301.500000000, A.D. 2023-Dec-23 00:00:00.0000, 5.040303754082550E+08, -1.337661397240370E+08, -2.060934327480356E+08,
2460308.500000000, A.D. 2023-Dec-30 00:00:00.0000, 5.041216944399601E+08, -1.258736914478633E+08, -2.023848308719160E+08,
2460315.500000000, A.D. 2024-Jan-06 00:00:00.0000, 5.040718340255272E+08, -1.179459834201778E+08, -1.986195374051687E+08,
2460322.500000000, A.D. 2024-Jan-13 00:00:00.0000, 5.038783968751973E+08, -1.099846668548952E+08, -1.947976563759659E+08,
2460329.500000000, A.D. 2024-Jan-20 00:00:00.0000, 5.035389425403269E+08, -1.019914608047099E+08, -1.909193117427868E+08,
2460336.500000000, A.D. 2024-Jan-27 00:00:00.0000, 5.030509876921145E+08, -9.396815548078930E+07, -1.869846488951010E+08,
2460343.500000000, A.D. 2024-Feb-03 00:00:00.0000, 5.024120060020030E+08, -8.591661553194916E+07, -1.829938361894092E+08,
2460350.500000000, A.D. 2024-Feb-10 00:00:00.0000, 5.016194279104975E+08, -7.783878358179286E+07, -1.789470665762706E+08,
2460357.500000000, A.D. 2024-Feb-17 00:00:00.0000, 5.006706404334509E+08, -6.973668402339582E+07, -1.748445593370970E+08,
2460364.500000000, A.D. 2024-Feb-24 00:00:00.0000, 4.995629870532426E+08, -6.161242706437971E+07, -1.706865619398764E+08,
2460371.500000000, A.D. 2024-Mar-02 00:00:00.0000, 4.982937677369730E+08, -5.346821306270504E+07, -1.664733520266476E+08,
2460378.500000000, A.D. 2024-Mar-09 00:00:00.0000, 4.968602392344801E+08, -4.530633722406641E+07, -1.622052395584137E+08,
2460385.500000000, A.D. 2024-Mar-16 00:00:00.0000, 4.952596160665219E+08, -3.712919447162335E+07, -1.578825691456128E+08,
2460392.500000000, A.D. 2024-Mar-23 00:00:00.0000, 4.934890721161063E+08, -2.893928338633146E+07, -1.535057224723215E+08,
2460399.500000000, A.D. 2024-Mar-30 00:00:00.0000, 4.915457406014825E+08, -2.073920925174147E+07, -1.490751206202139E+08,
2460406.500000000, A.D. 2024-Apr-06 00:00:00.0000, 4.894267127087515E+08, -1.253168957922455E+07, -1.445912266010350E+08,
2460413.500000000, A.D. 2024-Apr-13 00:00:00.0000, 4.871290384572649E+08, -4.319561285552934E+06, -1.400545483644239E+08,
2460420.500000000, A.D. 2024-Apr-20 00:00:00.0000, 4.846497288692921E+08, 3.894213146886453E+06, -1.354656419844564E+08,
2460427.500000000, A.D. 2024-Apr-27 00:00:00.0000, 4.819857579533486E+08, 1.210653995983614E+07, -1.308251149416401E+08,
2460434.500000000, A.D. 2024-May-04 00:00:00.0000, 4.791340646180606E+08, 2.031418815061823E+07, -1.261336295762947E+08,
2460441.500000000, A.D. 2024-May-11 00:00:00.0000, 4.760915547869320E+08, 2.851378314028172E+07, -1.213919067544126E+08,
2460448.500000000, A.D. 2024-May-18 00:00:00.0000, 4.728551038318319E+08, 3.670180009844524E+07, -1.166007297633646E+08,
2460455.500000000, A.D. 2024-May-25 00:00:00.0000, 4.694215593899145E+08, 4.487455691735940E+07, -1.117609484524738E+08,
2460462.500000000, A.D. 2024-Jun-01 00:00:00.0000, 4.657877446677961E+08, 5.302820677854772E+07, -1.068734836410037E+08,
2460469.500000000, A.D. 2024-Jun-08 00:00:00.0000, 4.619504625267794E+08, 6.115873029121210E+07, -1.019393318301000E+08,
2460476.500000000, A.D. 2024-Jun-15 00:00:00.0000, 4.579065007986388E+08, 6.926192775192229E+07, -9.695957022207841E+07,
2460483.500000000, A.D. 2024-Jun-22 00:00:00.0000, 4.536526378800953E+08, 7.733341270963481E+07, -9.193536186945117E+07,
2460490.500000000, A.D. 2024-Jun-29 00:00:00.0000, 4.491856465445455E+08, 8.536860502866581E+07, -8.686796091884986E+07,
2460497.500000000, A.D. 2024-Jul-06 00:00:00.0000, 4.445022986814026E+08, 9.336272099420857E+07, -8.175871840483123E+07,
2460504.500000000, A.D. 2024-Jul-13 00:00:00.0000, 4.395993729796858E+08, 1.013107633050235E+08, -7.660908855015257E+07,
2460511.500000000, A.D. 2024-Jul-20 00:00:00.0000, 4.344736636425822E+08, 1.092075121297162E+08, -7.142063530388120E+07,
2460518.500000000, A.D. 2024-Jul-27 00:00:00.0000, 4.291219895555979E+08, 1.170475163016871E+08, -6.619503914168630E+07,
2460525.500000000, A.D. 2024-Aug-03 00:00:00.0000, 4.235412042651386E+08, 1.248250843198386E+08, -6.093410418805635E+07,
2460532.500000000, A.D. 2024-Aug-10 00:00:00.0000, 4.177282070221464E+08, 1.325342752014411E+08, -5.563976567740572E+07,
2460539.500000000, A.D. 2024-Aug-17 00:00:00.0000, 4.116799550318024E+08, 1.401688892699007E+08, -5.031409775473210E+07,
2460546.500000000, A.D. 2024-Aug-24 00:00:00.0000, 4.053934770354856E+08, 1.477224589276958E+08, -4.495932161429875E+07,
2460553.500000000, A.D. 2024-Aug-31 00:00:00.0000, 3.988658884434058E+08, 1.551882394383003E+08, -3.957781398126601E+07,
2460560.500000000, A.D. 2024-Sep-07 00:00:00.0000, 3.920944084897774E+08, 1.625591999423426E+08, -3.417211594298868E+07,
2460567.500000000, A.D. 2024-Sep-14 00:00:00.0000, 3.850763796027108E+08, 1.698280158174769E+08, -2.874494203282996E+07,
2460574.500000000, A.D. 2024-Sep-21 00:00:00.0000, 3.778092870664001E+08, 1.769870629277149E+08, -2.329918931483997E+07,
2460581.500000000, A.D. 2024-Sep-28 00:00:00.0000, 3.702907785989176E+08, 1.840284106891561E+08, -1.783794664769769E+07,
2460588.500000000, A.D. 2024-Oct-05 00:00:00.0000, 3.625186876247234E+08, 1.909438141253518E+08, -1.236450441301703E+07,
2460595.500000000, A.D. 2024-Oct-12 00:00:00.0000, 3.544910599808421E+08, 1.977247080852085E+08, -6.882364367142409E+06,
2460602.500000000, A.D. 2024-Oct-19 00:00:00.0000, 3.462061823967988E+08, 2.043622035710616E+08, -1.395249399744168E+06,
2460609.500000000, A.D. 2024-Oct-26 00:00:00.0000, 3.376626127956525E+08, 2.108470856194492E+08, 4.092886831880823E+06,
2460616.500000000, A.D. 2024-Nov-02 00:00:00.0000, 3.288592127360406E+08, 2.171698128565075E+08, 9.577850467749134E+06,
2460623.500000000, A.D. 2024-Nov-09 00:00:00.0000, 3.197951821319893E+08, 2.233205190469593E+08, 1.505519833150952E+07,
2460630.500000000, A.D. 2024-Nov-16 00:00:00.0000, 3.104700962890607E+08, 2.292890169641676E+08, 2.052022928540075E+07,
2460637.500000000, A.D. 2024-Nov-23 00:00:00.0000, 3.008839452835075E+08, 2.350648048872665E+08, 2.596797621727727E+07,
2460644.500000000, A.D. 2024-Nov-30 00:00:00.0000, 2.910371758334444E+08, 2.406370760654680E+08, 3.139319883305718E+07,
2460651.500000000, A.D. 2024-Dec-07 00:00:00.0000, 2.809307359756339E+08, 2.459947319749504E+08, 3.679037747198963E+07,
2460658.500000000, A.D. 2024-Dec-14 00:00:00.0000, 2.705661216940687E+08, 2.511264010109688E+08, 4.215370835488631E+07,
2460665.500000000, A.D. 2024-Dec-21 00:00:00.0000, 2.599454229437117E+08, 2.560204618056296E+08, 4.747710064908990E+07,
2460672.500000000, A.D. 2024-Dec-28 00:00:00.0000, 2.490713707318844E+08, 2.606650686444768E+08, 5.275417522510964E+07,
2460679.500000000, A.D. 2025-Jan-04 00:00:00.0000, 2.379473874583818E+08, 2.650481817854074E+08, 5.797826537967047E+07,
2460686.500000000, A.D. 2025-Jan-11 00:00:00.0000, 2.265776381898551E+08, 2.691576047463132E+08, 6.314242016258042E+07,
2460693.500000000, A.D. 2025-Jan-18 00:00:00.0000, 2.149670813408381E+08, 2.729810280239640E+08, 6.823941066510603E+07,
2460700.500000000, A.D. 2025-Jan-25 00:00:00.0000, 2.031215182866976E+08, 2.765060791077829E+08, 7.326173956712918E+07,
2460707.500000000, A.D. 2025-Feb-01 00:00:00.0000, 1.910476412698087E+08, 2.797203790292176E+08, 7.820165428383355E+07,
2460714.500000000, A.D. 2025-Feb-08 00:00:00.0000, 1.787530787166242E+08, 2.826116056430703E+08, 8.305116405946606E+07,
$$EOE